{"type": "FeatureCollection", "features": [{"type": "Feature", "properties": {"norad_id": 25590, "name": "COSMOS 2361", "group": "musson", "lat": -82.20921137830584, "lon": -139.3401197742486, "alt_km": 976.9409120591081, "timestamp": "2025-12-24T03:53:29.916868+00:00", "meta": {"OBJECT_NAME": "COSMOS 2361", "OBJECT_ID": "1998-076A", "EPOCH": "2025-12-23T16:56:43.546848", "MEAN_MOTION": 13.73218639, "ECCENTRICITY": 0.0030262, "INCLINATION": 82.9344, "RA_OF_ASC_NODE": 335.9751, "ARG_OF_PERICENTER": 233.8617, "MEAN_ANOMALY": 299.192, "EPHEMERIS_TYPE": 0, "CLASSIFICATION_TYPE": "U", "NORAD_CAT_ID": 25590, "ELEMENT_SET_NO": 999, "REV_AT_EPOCH": 35261, "BSTAR": 3.7865e-05, "MEAN_MOTION_DOT": 5e-07, "MEAN_MOTION_DDOT": 0}, "tle": {"line1": "1 25590U 98076A   25357.70605957  .00000050  00000+0  37865-4 0  9999", "line2": "2 25590  82.9344 335.9751 0030262 233.8617 299.1920 13.73218639352611"}}, "geometry": {"type": "Point", "coordinates": [-139.3401197742486, -82.20921137830584]}}, {"type": "Feature", "properties": {"norad_id": 26818, "name": "COSMOS 2378", "group": "musson", "lat": 16.7150360081416, "lon": -6.608274253891237, "alt_km": 1007.4349180871377, "timestamp": "2025-12-24T03:53:29.916889+00:00", "meta": {"OBJECT_NAME": "COSMOS 2378", "OBJECT_ID": "2001-023A", "EPOCH": "2025-12-23T01:54:20.928096", "MEAN_MOTION": 13.74142797, "ECCENTRICITY": 0.00330436, "INCLINATION": 82.9271, "RA_OF_ASC_NODE": 352.0576, "ARG_OF_PERICENTER": 175.8748, "MEAN_ANOMALY": 248.0135, "EPHEMERIS_TYPE": 0, "CLASSIFICATION_TYPE": "U", "NORAD_CAT_ID": 26818, "ELEMENT_SET_NO": 999, "REV_AT_EPOCH": 23065, "BSTAR": 2.666957e-05, "MEAN_MOTION_DOT": 4e-07, "MEAN_MOTION_DDOT": 0}, "tle": {"line1": "1 26818U 01023A   25357.07940889  .00000040  00000+0  26670-4 0  9996", "line2": "2 26818  82.9271 352.0576 0033043 175.8748 248.0135 13.74142797230651"}}, "geometry": {"type": "Point", "coordinates": [-6.608274253891237, 16.7150360081416]}}, {"type": "Feature", "properties": {"norad_id": 27436, "name": "COSMOS 2389", "group": "musson", "lat": -81.45631965939222, "lon": 173.97283146195105, "alt_km": 1007.9952293817605, "timestamp": "2025-12-24T03:53:29.916902+00:00", "meta": {"OBJECT_NAME": "COSMOS 2389", "OBJECT_ID": "2002-026A", "EPOCH": "2025-12-23T02:12:35.088192", "MEAN_MOTION": 13.75155716, "ECCENTRICITY": 0.00471897, "INCLINATION": 82.9512, "RA_OF_ASC_NODE": 299.3213, "ARG_OF_PERICENTER": 32.5099, "MEAN_ANOMALY": 338.5882, "EPHEMERIS_TYPE": 0, "CLASSIFICATION_TYPE": "U", "NORAD_CAT_ID": 27436, "ELEMENT_SET_NO": 999, "REV_AT_EPOCH": 18291, "BSTAR": 5.6166386e-05, "MEAN_MOTION_DOT": 7e-07, "MEAN_MOTION_DDOT": 0}, "tle": {"line1": "1 27436U 02026A   25357.09207278  .00000070  00000+0  56166-4 0  9993", "line2": "2 27436  82.9512 299.3213 0047189  32.5099 338.5882 13.75155716182916"}}, "geometry": {"type": "Point", "coordinates": [173.97283146195105, -81.45631965939222]}}, {"type": "Feature", "properties": {"norad_id": 27818, "name": "COSMOS 2398", "group": "musson", "lat": 73.6929705672544, "lon": 59.25208790462514, "alt_km": 961.8519591114336, "timestamp": "2025-12-24T03:53:29.916914+00:00", "meta": {"OBJECT_NAME": "COSMOS 2398", "OBJECT_ID": "2003-023A", "EPOCH": "2025-12-23T05:22:57.155232", "MEAN_MOTION": 13.72386871, "ECCENTRICITY": 0.0032709, "INCLINATION": 82.9484, "RA_OF_ASC_NODE": 264.9724, "ARG_OF_PERICENTER": 83.8632, "MEAN_ANOMALY": 69.6264, "EPHEMERIS_TYPE": 0, "CLASSIFICATION_TYPE": "U", "NORAD_CAT_ID": 27818, "ELEMENT_SET_NO": 999, "REV_AT_EPOCH": 12960, "BSTAR": 7.8743298e-05, "MEAN_MOTION_DOT": 8.8e-07, "MEAN_MOTION_DDOT": 0}, "tle": {"line1": "1 27818U 03023A   25357.22427263  .00000088  00000+0  78743-4 0  9992", "line2": "2 27818  82.9484 264.9724 0032709  83.8632  69.6264 13.72386871129605"}}, "geometry": {"type": "Point", "coordinates": [59.25208790462514, 73.6929705672544]}}, {"type": "Feature", "properties": {"norad_id": 28380, "name": "COSMOS 2407", "group": "musson", "lat": 76.05744124258062, "lon": -5.417068666114495, "alt_km": 963.8197421975055, "timestamp": "2025-12-24T03:53:29.916925+00:00", "meta": {"OBJECT_NAME": "COSMOS 2407", "OBJECT_ID": "2004-028A", "EPOCH": "2025-12-23T20:28:21.588960", "MEAN_MOTION": 13.76314876, "ECCENTRICITY": 0.0039807, "INCLINATION": 82.9595, "RA_OF_ASC_NODE": 204.6643, "ARG_OF_PERICENTER": 24.4884, "MEAN_ANOMALY": 346.3424, "EPHEMERIS_TYPE": 0, "CLASSIFICATION_TYPE": "U", "NORAD_CAT_ID": 28380, "ELEMENT_SET_NO": 999, "REV_AT_EPOCH": 7576, "BSTAR": 3.8252e-05, "MEAN_MOTION_DOT": 5.3e-07, "MEAN_MOTION_DDOT": 0}, "tle": {"line1": "1 28380U 04028A   25357.85302765  .00000053  00000+0  38252-4 0  9994", "line2": "2 28380  82.9595 204.6643 0039807  24.4884 346.3424 13.76314876 75760"}}, "geometry": {"type": "Point", "coordinates": [-5.417068666114495, 76.05744124258062]}}, {"type": "Feature", "properties": {"norad_id": 28521, "name": "COSMOS 2414", "group": "musson", "lat": 58.142163920278335, "lon": -15.466083818406055, "alt_km": 900.9054385012196, "timestamp": "2025-12-24T03:53:29.916936+00:00", "meta": {"OBJECT_NAME": "COSMOS 2414", "OBJECT_ID": "2005-002A", "EPOCH": "2025-12-23T04:49:12.346176", "MEAN_MOTION": 13.87904296, "ECCENTRICITY": 0.00413702, "INCLINATION": 82.9488, "RA_OF_ASC_NODE": 176.7493, "ARG_OF_PERICENTER": 110.6519, "MEAN_ANOMALY": 249.9088, "EPHEMERIS_TYPE": 0, "CLASSIFICATION_TYPE": "U", "NORAD_CAT_ID": 28521, "ELEMENT_SET_NO": 999, "REV_AT_EPOCH": 5940, "BSTAR": 3.8846477e-05, "MEAN_MOTION_DOT": 6.3e-07, "MEAN_MOTION_DDOT": 0}, "tle": {"line1": "1 28521U 05002A   25357.20083734  .00000063  00000+0  38846-4 0  9995", "line2": "2 28521  82.9488 176.7493 0041370 110.6519 249.9088 13.87904296 59401"}}, "geometry": {"type": "Point", "coordinates": [-15.466083818406055, 58.142163920278335]}}, {"type": "Feature", "properties": {"norad_id": 32052, "name": "COSMOS 2429", "group": "musson", "lat": 82.78336504805424, "lon": 78.24006004659444, "alt_km": 971.2078824528062, "timestamp": "2025-12-24T03:53:29.916946+00:00", "meta": {"OBJECT_NAME": "COSMOS 2429", "OBJECT_ID": "2007-038A", "EPOCH": "2025-12-23T16:58:21.076032", "MEAN_MOTION": 13.75150448, "ECCENTRICITY": 0.0038595, "INCLINATION": 82.9807, "RA_OF_ASC_NODE": 335.2233, "ARG_OF_PERICENTER": 7.6933, "MEAN_ANOMALY": 352.4807, "EPHEMERIS_TYPE": 0, "CLASSIFICATION_TYPE": "U", "NORAD_CAT_ID": 32052, "ELEMENT_SET_NO": 999, "REV_AT_EPOCH": 91753, "BSTAR": 4.4052e-05, "MEAN_MOTION_DOT": 5.8e-07, "MEAN_MOTION_DDOT": 0}, "tle": {"line1": "1 32052U 07038A   25357.70718838  .00000058  00000+0  44052-4 0  9995", "line2": "2 32052  82.9807 335.2233 0038595   7.6933 352.4807 13.75150448917539"}}, "geometry": {"type": "Point", "coordinates": [78.24006004659444, 82.78336504805424]}}, {"type": "Feature", "properties": {"norad_id": 35635, "name": "COSMOS 2454", "group": "musson", "lat": -72.80968320535345, "lon": 3.5438056992069837, "alt_km": 948.7249466362573, "timestamp": "2025-12-24T03:53:29.916957+00:00", "meta": {"OBJECT_NAME": "COSMOS 2454", "OBJECT_ID": "2009-039A", "EPOCH": "2025-12-23T18:05:10.239072", "MEAN_MOTION": 13.89929924, "ECCENTRICITY": 0.0020075, "INCLINATION": 82.9557, "RA_OF_ASC_NODE": 160.2957, "ARG_OF_PERICENTER": 44.0796, "MEAN_ANOMALY": 327.1195, "EPHEMERIS_TYPE": 0, "CLASSIFICATION_TYPE": "U", "NORAD_CAT_ID": 35635, "ELEMENT_SET_NO": 999, "REV_AT_EPOCH": 83303, "BSTAR": 4.197e-05, "MEAN_MOTION_DOT": 6.8e-07, "MEAN_MOTION_DDOT": 0}, "tle": {"line1": "1 35635U 09039A   25357.75359073  .00000068  00000+0  41970-4 0  9992", "line2": "2 35635  82.9557 160.2957 0020075  44.0796 327.1195 13.89929924833035"}}, "geometry": {"type": "Point", "coordinates": [3.5438056992069837, -72.80968320535345]}}, {"type": "Feature", "properties": {"norad_id": 36519, "name": "COSMOS 2463", "group": "musson", "lat": -80.75391410462552, "lon": -112.30270292753994, "alt_km": 975.6791924549789, "timestamp": "2025-12-24T03:53:29.916968+00:00", "meta": {"OBJECT_NAME": "COSMOS 2463", "OBJECT_ID": "2010-017A", "EPOCH": "2025-12-23T20:26:58.883424", "MEAN_MOTION": 13.71650073, "ECCENTRICITY": 0.0034786, "INCLINATION": 82.9603, "RA_OF_ASC_NODE": 18.5461, "ARG_OF_PERICENTER": 256.0762, "MEAN_ANOMALY": 277.5424, "EPHEMERIS_TYPE": 0, "CLASSIFICATION_TYPE": "U", "NORAD_CAT_ID": 36519, "ELEMENT_SET_NO": 999, "REV_AT_EPOCH": 78389, "BSTAR": 3.0004e-05, "MEAN_MOTION_DOT": 4.2e-07, "MEAN_MOTION_DDOT": 0}, "tle": {"line1": "1 36519U 10017A   25357.85207041  .00000042  00000+0  30004-4 0  9998", "line2": "2 36519  82.9603  18.5461 0034786 256.0762 277.5424 13.71650073783894"}}, "geometry": {"type": "Point", "coordinates": [-112.30270292753994, -80.75391410462552]}}]}